{
  "type": "FeatureCollection",
  "name": "innovationcentres",
  "features": [
    {
      "type": "Feature",
      "geometry": { "type": "Point", "coordinates": [-79.759128, 43.684153] },
      "properties": {
        "id": "ic-altitude-accelerator",
        "name": "Altitude Accelerator",
        "name_fr": null,
        "layer": "innovationcentres",
        "status": "active",
        "operator": null,
        "address": "6 George Street South, Brampton, ON L6Y 1P1",
        "municipality": "Brampton",
        "capacity_mw": null,
        "location_precision": "street",
        "source_name": "Government of Ontario — Regional Innovation Centre locations",
        "source_url": "https://www.ontario.ca/page/regional-innovation-centre-locations",
        "retrieved": "2026-08-14",
        "licence": "© King's Printer for Ontario — ontario.ca permits non-commercial reproduction with credit; names and addresses reused as facts",
        "links": null,
        "notes": "One of Ontario's 17 designated Regional Innovation Centres. The province designates these, so what qualifies for this layer is Ontario's judgement rather than this project's. A Regional Innovation Centre supports startups across every sector: it is not an AI-specific accelerator, and it appears here as infrastructure available to Ontario's AI companies rather than as a dedicated AI programme."
      }
    },
    {
      "type": "Feature",
      "geometry": { "type": "Point", "coordinates": [-80.2191689, 43.501165] },
      "properties": {
        "id": "ic-boundless-accelerator",
        "name": "Boundless Accelerator",
        "name_fr": null,
        "layer": "innovationcentres",
        "status": "active",
        "operator": null,
        "address": "400 Southgate Drive, Guelph, ON N1G 4P5",
        "municipality": "Guelph",
        "capacity_mw": null,
        "location_precision": "street",
        "source_name": "Government of Ontario — Regional Innovation Centre locations",
        "source_url": "https://www.ontario.ca/page/regional-innovation-centre-locations",
        "retrieved": "2026-08-14",
        "licence": "© King's Printer for Ontario — ontario.ca permits non-commercial reproduction with credit; names and addresses reused as facts",
        "links": null,
        "notes": "One of Ontario's 17 designated Regional Innovation Centres. The province designates these, so what qualifies for this layer is Ontario's judgement rather than this project's. A Regional Innovation Centre supports startups across every sector: it is not an AI-specific accelerator, and it appears here as infrastructure available to Ontario's AI companies rather than as a dedicated AI programme."
      }
    },
    {
      "type": "Feature",
      "geometry": { "type": "Point", "coordinates": [-80.4988923, 43.4510128] },
      "properties": {
        "id": "ic-communitech",
        "name": "Communitech",
        "name_fr": null,
        "layer": "innovationcentres",
        "status": "active",
        "operator": null,
        "address": "151 Charles Street West, Suite 100, Kitchener, ON N2G 1H6",
        "municipality": "Kitchener",
        "capacity_mw": null,
        "location_precision": "street",
        "source_name": "Government of Ontario — Regional Innovation Centre locations",
        "source_url": "https://www.ontario.ca/page/regional-innovation-centre-locations",
        "retrieved": "2026-08-14",
        "licence": "© King's Printer for Ontario — ontario.ca permits non-commercial reproduction with credit; names and addresses reused as facts",
        "links": null,
        "notes": "One of Ontario's 17 designated Regional Innovation Centres. The province designates these, so what qualifies for this layer is Ontario's judgement rather than this project's. A Regional Innovation Centre supports startups across every sector: it is not an AI-specific accelerator, and it appears here as infrastructure available to Ontario's AI companies rather than as a dedicated AI programme."
      }
    },
    {
      "type": "Feature",
      "geometry": { "type": "Point", "coordinates": [-79.2413055, 43.1605445] },
      "properties": {
        "id": "ic-innovate-niagara",
        "name": "Innovate Niagara",
        "name_fr": null,
        "layer": "innovationcentres",
        "status": "active",
        "operator": null,
        "address": "386 St. Paul Street, Suite 102, St. Catharines, ON L2R 3N2",
        "municipality": "St. Catharines",
        "capacity_mw": null,
        "location_precision": "street",
        "source_name": "Government of Ontario — Regional Innovation Centre locations",
        "source_url": "https://www.ontario.ca/page/regional-innovation-centre-locations",
        "retrieved": "2026-08-14",
        "licence": "© King's Printer for Ontario — ontario.ca permits non-commercial reproduction with credit; names and addresses reused as facts",
        "links": null,
        "notes": "One of Ontario's 17 designated Regional Innovation Centres. The province designates these, so what qualifies for this layer is Ontario's judgement rather than this project's. A Regional Innovation Centre supports startups across every sector: it is not an AI-specific accelerator, and it appears here as infrastructure available to Ontario's AI companies rather than as a dedicated AI programme."
      }
    },
    {
      "type": "Feature",
      "geometry": { "type": "Point", "coordinates": [-79.9006169, 43.2567995] },
      "properties": {
        "id": "ic-innovation-factory",
        "name": "Innovation Factory",
        "name_fr": null,
        "layer": "innovationcentres",
        "status": "active",
        "operator": null,
        "address": "The Atrium@McMaster Innovation Park, B21-175 Longwood Road South, Hamilton, ON L8P 0A1",
        "municipality": "Hamilton",
        "capacity_mw": null,
        "location_precision": "street",
        "source_name": "Government of Ontario — Regional Innovation Centre locations",
        "source_url": "https://www.ontario.ca/page/regional-innovation-centre-locations",
        "retrieved": "2026-08-14",
        "licence": "© King's Printer for Ontario — ontario.ca permits non-commercial reproduction with credit; names and addresses reused as facts",
        "links": null,
        "notes": "One of Ontario's 17 designated Regional Innovation Centres. The province designates these, so what qualifies for this layer is Ontario's judgement rather than this project's. A Regional Innovation Centre supports startups across every sector: it is not an AI-specific accelerator, and it appears here as infrastructure available to Ontario's AI companies rather than as a dedicated AI programme."
      }
    },
    {
      "type": "Feature",
      "geometry": { "type": "Point", "coordinates": [-79.7612794, 43.3961277] },
      "properties": {
        "id": "ic-innovation-factory-burlington-location",
        "name": "Innovation Factory - Burlington Location",
        "name_fr": null,
        "layer": "innovationcentres",
        "status": "active",
        "operator": null,
        "address": "c/o Tech Place Burlington, 5500 North Service Road, Suite 801, Burlington, ON L7L 6W6",
        "municipality": "Burlington",
        "capacity_mw": null,
        "location_precision": "street",
        "source_name": "Government of Ontario — Regional Innovation Centre locations",
        "source_url": "https://www.ontario.ca/page/regional-innovation-centre-locations",
        "retrieved": "2026-08-14",
        "licence": "© King's Printer for Ontario — ontario.ca permits non-commercial reproduction with credit; names and addresses reused as facts",
        "links": null,
        "notes": "One of Ontario's 17 designated Regional Innovation Centres. The province designates these, so what qualifies for this layer is Ontario's judgement rather than this project's. A Regional Innovation Centre supports startups across every sector: it is not an AI-specific accelerator, and it appears here as infrastructure available to Ontario's AI companies rather than as a dedicated AI programme."
      }
    },
    {
      "type": "Feature",
      "geometry": { "type": "Point", "coordinates": [-79.4282665, 46.3155611] },
      "properties": {
        "id": "ic-innovation-initiatives-ontario-north",
        "name": "Innovation Initiatives Ontario North",
        "name_fr": null,
        "layer": "innovationcentres",
        "status": "active",
        "operator": null,
        "address": "60 Commerce Crescent, Room W106, North Bay, ON P1A 0B4",
        "municipality": "North Bay",
        "capacity_mw": null,
        "location_precision": "street",
        "source_name": "Government of Ontario — Regional Innovation Centre locations",
        "source_url": "https://www.ontario.ca/page/regional-innovation-centre-locations",
        "retrieved": "2026-08-14",
        "licence": "© King's Printer for Ontario — ontario.ca permits non-commercial reproduction with credit; names and addresses reused as facts",
        "links": null,
        "notes": "One of Ontario's 17 designated Regional Innovation Centres. The province designates these, so what qualifies for this layer is Ontario's judgement rather than this project's. A Regional Innovation Centre supports startups across every sector: it is not an AI-specific accelerator, and it appears here as infrastructure available to Ontario's AI companies rather than as a dedicated AI programme."
      }
    },
    {
      "type": "Feature",
      "geometry": { "type": "Point", "coordinates": [-75.7281315, 45.409741] },
      "properties": {
        "id": "ic-invest-ottawa",
        "name": "Invest Ottawa",
        "name_fr": null,
        "layer": "innovationcentres",
        "status": "active",
        "operator": null,
        "address": "7 Bayview Road, Ottawa, ON K1Y 2C5",
        "municipality": "Ottawa",
        "capacity_mw": null,
        "location_precision": "street",
        "source_name": "Government of Ontario — Regional Innovation Centre locations",
        "source_url": "https://www.ontario.ca/page/regional-innovation-centre-locations",
        "retrieved": "2026-08-14",
        "licence": "© King's Printer for Ontario — ontario.ca permits non-commercial reproduction with credit; names and addresses reused as facts",
        "links": null,
        "notes": "One of Ontario's 17 designated Regional Innovation Centres. The province designates these, so what qualifies for this layer is Ontario's judgement rather than this project's. A Regional Innovation Centre supports startups across every sector: it is not an AI-specific accelerator, and it appears here as infrastructure available to Ontario's AI companies rather than as a dedicated AI programme."
      }
    },
    {
      "type": "Feature",
      "geometry": { "type": "Point", "coordinates": [-76.5158428, 44.2428365] },
      "properties": {
        "id": "ic-launch-lab",
        "name": "Launch Lab",
        "name_fr": null,
        "layer": "innovationcentres",
        "status": "active",
        "operator": null,
        "address": "945 Princess St, Suite, 1101, Kingston, ON K7L 0E9",
        "municipality": "Kingston",
        "capacity_mw": null,
        "location_precision": "street",
        "source_name": "Government of Ontario — Regional Innovation Centre locations",
        "source_url": "https://www.ontario.ca/page/regional-innovation-centre-locations",
        "retrieved": "2026-08-14",
        "licence": "© King's Printer for Ontario — ontario.ca permits non-commercial reproduction with credit; names and addresses reused as facts",
        "links": null,
        "notes": "One of Ontario's 17 designated Regional Innovation Centres. The province designates these, so what qualifies for this layer is Ontario's judgement rather than this project's. A Regional Innovation Centre supports startups across every sector: it is not an AI-specific accelerator, and it appears here as infrastructure available to Ontario's AI companies rather than as a dedicated AI programme."
      }
    },
    {
      "type": "Feature",
      "geometry": { "type": "Point", "coordinates": [-79.3881289, 43.6598584] },
      "properties": {
        "id": "ic-mars-discovery-district",
        "name": "MaRS Discovery District",
        "name_fr": null,
        "layer": "innovationcentres",
        "status": "active",
        "operator": null,
        "address": "101 College Street, Suite 401, Toronto Ontario, Toronto, ON M5G 1L7",
        "municipality": "Toronto",
        "capacity_mw": null,
        "location_precision": "street",
        "source_name": "Government of Ontario — Regional Innovation Centre locations",
        "source_url": "https://www.ontario.ca/page/regional-innovation-centre-locations",
        "retrieved": "2026-08-14",
        "licence": "© King's Printer for Ontario — ontario.ca permits non-commercial reproduction with credit; names and addresses reused as facts",
        "links": null,
        "notes": "One of Ontario's 17 designated Regional Innovation Centres. The province designates these, so what qualifies for this layer is Ontario's judgement rather than this project's. A Regional Innovation Centre supports startups across every sector: it is not an AI-specific accelerator, and it appears here as infrastructure available to Ontario's AI companies rather than as a dedicated AI programme."
      }
    },
    {
      "type": "Feature",
      "geometry": { "type": "Point", "coordinates": [-80.9386722, 46.5363205] },
      "properties": {
        "id": "ic-norcat-innovation",
        "name": "NORCAT Innovation",
        "name_fr": null,
        "layer": "innovationcentres",
        "status": "active",
        "operator": null,
        "address": "1545 Maley Drive, Greater Sudbury, ON P3A 4R7",
        "municipality": "Greater Sudbury",
        "capacity_mw": null,
        "location_precision": "street",
        "source_name": "Government of Ontario — Regional Innovation Centre locations",
        "source_url": "https://www.ontario.ca/page/regional-innovation-centre-locations",
        "retrieved": "2026-08-14",
        "licence": "© King's Printer for Ontario — ontario.ca permits non-commercial reproduction with credit; names and addresses reused as facts",
        "links": null,
        "notes": "One of Ontario's 17 designated Regional Innovation Centres. The province designates these, so what qualifies for this layer is Ontario's judgement rather than this project's. A Regional Innovation Centre supports startups across every sector: it is not an AI-specific accelerator, and it appears here as infrastructure available to Ontario's AI companies rather than as a dedicated AI programme."
      }
    },
    {
      "type": "Feature",
      "geometry": { "type": "Point", "coordinates": [-89.2687898, 48.399407] },
      "properties": {
        "id": "ic-northwestern-ontario-innovation-centre",
        "name": "Northwestern Ontario Innovation Centre",
        "name_fr": null,
        "layer": "innovationcentres",
        "status": "active",
        "operator": null,
        "address": "Box 398, 2400 Nipigon Road, Thunder Bay, ON P7C 4W1",
        "municipality": "Thunder Bay",
        "capacity_mw": null,
        "location_precision": "street",
        "source_name": "Government of Ontario — Regional Innovation Centre locations",
        "source_url": "https://www.ontario.ca/page/regional-innovation-centre-locations",
        "retrieved": "2026-08-14",
        "licence": "© King's Printer for Ontario — ontario.ca permits non-commercial reproduction with credit; names and addresses reused as facts",
        "links": null,
        "notes": "One of Ontario's 17 designated Regional Innovation Centres. The province designates these, so what qualifies for this layer is Ontario's judgement rather than this project's. A Regional Innovation Centre supports startups across every sector: it is not an AI-specific accelerator, and it appears here as infrastructure available to Ontario's AI companies rather than as a dedicated AI programme."
      }
    },
    {
      "type": "Feature",
      "geometry": { "type": "Point", "coordinates": [-79.6908659, 44.3878491] },
      "properties": {
        "id": "ic-sandbox-centre",
        "name": "Sandbox Centre",
        "name_fr": null,
        "layer": "innovationcentres",
        "status": "active",
        "operator": null,
        "address": "24 Maple Ave, 2nd Floor, Barrie, ON L4M 7W4",
        "municipality": "Barrie",
        "capacity_mw": null,
        "location_precision": "street",
        "source_name": "Government of Ontario — Regional Innovation Centre locations",
        "source_url": "https://www.ontario.ca/page/regional-innovation-centre-locations",
        "retrieved": "2026-08-14",
        "licence": "© King's Printer for Ontario — ontario.ca permits non-commercial reproduction with credit; names and addresses reused as facts",
        "links": null,
        "notes": "One of Ontario's 17 designated Regional Innovation Centres. The province designates these, so what qualifies for this layer is Ontario's judgement rather than this project's. A Regional Innovation Centre supports startups across every sector: it is not an AI-specific accelerator, and it appears here as infrastructure available to Ontario's AI companies rather than as a dedicated AI programme."
      }
    },
    {
      "type": "Feature",
      "geometry": { "type": "Point", "coordinates": [-84.3341391, 46.5066013] },
      "properties": {
        "id": "ic-sault-ste-marie-innovation-centre",
        "name": "Sault Ste. Marie Innovation Centre",
        "name_fr": null,
        "layer": "innovationcentres",
        "status": "active",
        "operator": null,
        "address": "99 Foster Drive, Level Six, Sault Ste. Marie, ON P6A 5X6",
        "municipality": "Sault Ste. Marie",
        "capacity_mw": null,
        "location_precision": "street",
        "source_name": "Government of Ontario — Regional Innovation Centre locations",
        "source_url": "https://www.ontario.ca/page/regional-innovation-centre-locations",
        "retrieved": "2026-08-14",
        "licence": "© King's Printer for Ontario — ontario.ca permits non-commercial reproduction with credit; names and addresses reused as facts",
        "links": null,
        "notes": "One of Ontario's 17 designated Regional Innovation Centres. The province designates these, so what qualifies for this layer is Ontario's judgement rather than this project's. A Regional Innovation Centre supports startups across every sector: it is not an AI-specific accelerator, and it appears here as infrastructure available to Ontario's AI companies rather than as a dedicated AI programme."
      }
    },
    {
      "type": "Feature",
      "geometry": { "type": "Point", "coordinates": [-78.8636912, 43.8973288] },
      "properties": {
        "id": "ic-spark-centre",
        "name": "Spark Centre",
        "name_fr": null,
        "layer": "innovationcentres",
        "status": "active",
        "operator": null,
        "address": "2 Simcoe Street South, Suite 300, Oshawa, ON L1H 8C1",
        "municipality": "Oshawa",
        "capacity_mw": null,
        "location_precision": "street",
        "source_name": "Government of Ontario — Regional Innovation Centre locations",
        "source_url": "https://www.ontario.ca/page/regional-innovation-centre-locations",
        "retrieved": "2026-08-14",
        "licence": "© King's Printer for Ontario — ontario.ca permits non-commercial reproduction with credit; names and addresses reused as facts",
        "links": null,
        "notes": "One of Ontario's 17 designated Regional Innovation Centres. The province designates these, so what qualifies for this layer is Ontario's judgement rather than this project's. A Regional Innovation Centre supports startups across every sector: it is not an AI-specific accelerator, and it appears here as infrastructure available to Ontario's AI companies rather than as a dedicated AI programme."
      }
    },
    {
      "type": "Feature",
      "geometry": { "type": "Point", "coordinates": [-81.2439301, 42.9881547] },
      "properties": {
        "id": "ic-techalliance-of-southwestern-ontario",
        "name": "TechAlliance of Southwestern Ontario",
        "name_fr": null,
        "layer": "innovationcentres",
        "status": "active",
        "operator": null,
        "address": "333 Dufferin Avenue, Unit A, London, ON N6B 1Z3",
        "municipality": "London",
        "capacity_mw": null,
        "location_precision": "street",
        "source_name": "Government of Ontario — Regional Innovation Centre locations",
        "source_url": "https://www.ontario.ca/page/regional-innovation-centre-locations",
        "retrieved": "2026-08-14",
        "licence": "© King's Printer for Ontario — ontario.ca permits non-commercial reproduction with credit; names and addresses reused as facts",
        "links": null,
        "notes": "One of Ontario's 17 designated Regional Innovation Centres. The province designates these, so what qualifies for this layer is Ontario's judgement rather than this project's. A Regional Innovation Centre supports startups across every sector: it is not an AI-specific accelerator, and it appears here as infrastructure available to Ontario's AI companies rather than as a dedicated AI programme."
      }
    },
    {
      "type": "Feature",
      "geometry": { "type": "Point", "coordinates": [-83.0659532, 42.3041516] },
      "properties": {
        "id": "ic-wetech-alliance",
        "name": "WETech Alliance",
        "name_fr": null,
        "layer": "innovationcentres",
        "status": "active",
        "operator": null,
        "address": "Joyce Entrepreneurship Centre, 2455 Wyandotte Street West, EPICentre, 2nd Floor, Windsor, ON N9B 0C1",
        "municipality": "Windsor",
        "capacity_mw": null,
        "location_precision": "street",
        "source_name": "Government of Ontario — Regional Innovation Centre locations",
        "source_url": "https://www.ontario.ca/page/regional-innovation-centre-locations",
        "retrieved": "2026-08-14",
        "licence": "© King's Printer for Ontario — ontario.ca permits non-commercial reproduction with credit; names and addresses reused as facts",
        "links": null,
        "notes": "One of Ontario's 17 designated Regional Innovation Centres. The province designates these, so what qualifies for this layer is Ontario's judgement rather than this project's. A Regional Innovation Centre supports startups across every sector: it is not an AI-specific accelerator, and it appears here as infrastructure available to Ontario's AI companies rather than as a dedicated AI programme."
      }
    }
  ]
}
