{
  "type": "FeatureCollection",
  "name": "programs",
  "features": [
    {
      "type": "Feature",
      "geometry": { "type": "Point", "coordinates": [-75.6901106, 45.4208777] },
      "properties": {
        "id": "pr-algonquin-college-of-applied-arts-and-technology-ottawa",
        "name": "Algonquin College of Applied Arts and Technology",
        "name_fr": null,
        "layer": "programs",
        "status": "active",
        "operator": null,
        "address": null,
        "municipality": "Ottawa",
        "capacity_mw": null,
        "location_precision": "municipality",
        "source_name": "GCwiki — Canadian academic A.I. programs",
        "source_url": "https://wiki.gccollab.ca/Artificial_Intelligence/Canadian_academic_A.I._programs",
        "retrieved": "2026-08-14",
        "licence": "CC BY 4.0 — attribution required",
        "links": [{"label": "Artificial Intelligence Software Development (Co-op)", "url": "https://www.algonquincollege.com/sat/program/artificial-intelligence-software-development/"}],
        "notes": "1 AI program(s) listed by the source as of 2025-04-15, which is the date of the source snapshot rather than a check of the institution's current calendar."
      }
    },
    {
      "type": "Feature",
      "geometry": { "type": "Point", "coordinates": [-80.991211, 46.49272] },
      "properties": {
        "id": "pr-cambrian-college-sudbury",
        "name": "Cambrian College",
        "name_fr": null,
        "layer": "programs",
        "status": "active",
        "operator": null,
        "address": null,
        "municipality": "Sudbury",
        "capacity_mw": null,
        "location_precision": "municipality",
        "source_name": "GCwiki — Canadian academic A.I. programs",
        "source_url": "https://wiki.gccollab.ca/Artificial_Intelligence/Canadian_academic_A.I._programs",
        "retrieved": "2026-08-14",
        "licence": "CC BY 4.0 — attribution required",
        "links": [{"label": "Artificial Intelligence and Machine Learning (AIGC) Graduate Certificate", "url": "https://cambriancollege.ca/programs/artificial-intelligence-and-machine-learning"}],
        "notes": "1 AI program(s) listed by the source as of 2025-04-15, which is the date of the source snapshot rather than a check of the institution's current calendar."
      }
    },
    {
      "type": "Feature",
      "geometry": { "type": "Point", "coordinates": [-79.3839347, 43.6534817] },
      "properties": {
        "id": "pr-centennial-college-toronto",
        "name": "Centennial College",
        "name_fr": null,
        "layer": "programs",
        "status": "active",
        "operator": null,
        "address": null,
        "municipality": "Toronto",
        "capacity_mw": null,
        "location_precision": "municipality",
        "source_name": "GCwiki — Canadian academic A.I. programs",
        "source_url": "https://wiki.gccollab.ca/Artificial_Intelligence/Canadian_academic_A.I._programs",
        "retrieved": "2026-08-14",
        "licence": "CC BY 4.0 — attribution required",
        "links": [{"label": "Artificial Intelligence - Software Engineering Technology (Fast Track) (Optional Co-op)", "url": "https://www.centennialcollege.ca/programs-courses/full-time/artificial-intelligence-fast-track"}, {"label": "Artificial Intelligence - Software Engineering Technology (Fast Track) (Optional Co-op) (Online)", "url": "https://www.centennialcollege.ca/programs-courses/full-time/artificial-intelligence-fast-track-online"}, {"label": "Artificial Intelligence - Software Engineering Technology (Optional Co-op)", "url": "https://www.centennialcollege.ca/programs-courses/full-time/artificial-intelligence"}],
        "notes": "3 AI program(s) listed by the source as of 2025-04-15, which is the date of the source snapshot rather than a check of the institution's current calendar."
      }
    },
    {
      "type": "Feature",
      "geometry": { "type": "Point", "coordinates": [-80.5222961, 43.4652699] },
      "properties": {
        "id": "pr-conestoga-college-institute-of-technology-and-advanced-learning-waterloo",
        "name": "Conestoga College Institute of Technology and Advanced Learning",
        "name_fr": null,
        "layer": "programs",
        "status": "active",
        "operator": null,
        "address": null,
        "municipality": "Waterloo",
        "capacity_mw": null,
        "location_precision": "municipality",
        "source_name": "GCwiki — Canadian academic A.I. programs",
        "source_url": "https://wiki.gccollab.ca/Artificial_Intelligence/Canadian_academic_A.I._programs",
        "retrieved": "2026-08-14",
        "licence": "CC BY 4.0 — attribution required",
        "links": [{"label": "Applied Artificial Intelligence & Machine Learning", "url": "https://www.conestogac.on.ca/fulltime/applied-artificial-intelligence-machine-learning"}],
        "notes": "1 AI program(s) listed by the source as of 2025-04-15, which is the date of the source snapshot rather than a check of the institution's current calendar."
      }
    },
    {
      "type": "Feature",
      "geometry": { "type": "Point", "coordinates": [-81.2496068, 42.9836747] },
      "properties": {
        "id": "pr-fanshawe-college-of-applied-arts-and-technology-london",
        "name": "Fanshawe College of Applied Arts and Technology",
        "name_fr": null,
        "layer": "programs",
        "status": "active",
        "operator": null,
        "address": null,
        "municipality": "London",
        "capacity_mw": null,
        "location_precision": "municipality",
        "source_name": "GCwiki — Canadian academic A.I. programs",
        "source_url": "https://wiki.gccollab.ca/Artificial_Intelligence/Canadian_academic_A.I._programs",
        "retrieved": "2026-08-14",
        "licence": "CC BY 4.0 — attribution required",
        "links": [{"label": "Graduate Certificate in Artificial Intelligence and Machine Learning (Co-op)", "url": "https://www.fanshawec.ca/programs/aim1-artificial-intelligence-and-machine-learning-co-op/next"}],
        "notes": "1 AI program(s) listed by the source as of 2025-04-15, which is the date of the source snapshot rather than a check of the institution's current calendar."
      }
    },
    {
      "type": "Feature",
      "geometry": { "type": "Point", "coordinates": [-78.3199496, 44.3048009] },
      "properties": {
        "id": "pr-fleming-college-peterborough",
        "name": "Fleming College",
        "name_fr": null,
        "layer": "programs",
        "status": "active",
        "operator": null,
        "address": null,
        "municipality": "Peterborough",
        "capacity_mw": null,
        "location_precision": "municipality",
        "source_name": "GCwiki — Canadian academic A.I. programs",
        "source_url": "https://wiki.gccollab.ca/Artificial_Intelligence/Canadian_academic_A.I._programs",
        "retrieved": "2026-08-14",
        "licence": "CC BY 4.0 — attribution required",
        "links": [{"label": "Artificial Intelligence Graduate Certificate", "url": "https://flemingcollege.ca/programs/artificial-intelligence"}],
        "notes": "1 AI program(s) listed by the source as of 2025-04-15, which is the date of the source snapshot rather than a check of the institution's current calendar."
      }
    },
    {
      "type": "Feature",
      "geometry": { "type": "Point", "coordinates": [-79.6901302, 44.3893208] },
      "properties": {
        "id": "pr-georgian-college-barrie",
        "name": "Georgian College",
        "name_fr": null,
        "layer": "programs",
        "status": "active",
        "operator": null,
        "address": null,
        "municipality": "Barrie",
        "capacity_mw": null,
        "location_precision": "municipality",
        "source_name": "GCwiki — Canadian academic A.I. programs",
        "source_url": "https://wiki.gccollab.ca/Artificial_Intelligence/Canadian_academic_A.I._programs",
        "retrieved": "2026-08-14",
        "licence": "CC BY 4.0 — attribution required",
        "links": [{"label": "Artificial Intelligence Leadership and Management Ontario College Graduate Certificate program", "url": "https://www.georgiancollege.ca/academics/programs/artificial-intelligence-leadership-management/"}, {"label": "Artificial Intelligence – Architecture, Design, and Implementation Ontario College Graduate Certificate program", "url": "https://www.georgiancollege.ca/academics/programs/artificial-intelligence-architecture-design-implementation/#program-information"}],
        "notes": "2 AI program(s) listed by the source as of 2025-04-15, which is the date of the source snapshot rather than a check of the institution's current calendar."
      }
    },
    {
      "type": "Feature",
      "geometry": { "type": "Point", "coordinates": [-79.3839347, 43.6534817] },
      "properties": {
        "id": "pr-humber-college-of-applied-arts-and-technology-toronto",
        "name": "Humber College of Applied Arts and Technology",
        "name_fr": null,
        "layer": "programs",
        "status": "active",
        "operator": null,
        "address": null,
        "municipality": "Toronto",
        "capacity_mw": null,
        "location_precision": "municipality",
        "source_name": "GCwiki — Canadian academic A.I. programs",
        "source_url": "https://wiki.gccollab.ca/Artificial_Intelligence/Canadian_academic_A.I._programs",
        "retrieved": "2026-08-14",
        "licence": "CC BY 4.0 — attribution required",
        "links": [{"label": "Artificial Intelligence with Machine Learning", "url": "https://appliedtechnology.humber.ca/programs/artificial-intelligence-with-machine-learning.html?_ga=2.199117740.248863642.1660659893-372299788.1656346150"}],
        "notes": "1 AI program(s) listed by the source as of 2025-04-15, which is the date of the source snapshot rather than a check of the institution's current calendar."
      }
    },
    {
      "type": "Feature",
      "geometry": { "type": "Point", "coordinates": [-89.259796, 48.406414] },
      "properties": {
        "id": "pr-lakehead-university-thunder-bay",
        "name": "Lakehead University",
        "name_fr": null,
        "layer": "programs",
        "status": "active",
        "operator": null,
        "address": null,
        "municipality": "Thunder Bay",
        "capacity_mw": null,
        "location_precision": "municipality",
        "source_name": "GCwiki — Canadian academic A.I. programs",
        "source_url": "https://wiki.gccollab.ca/Artificial_Intelligence/Canadian_academic_A.I._programs",
        "retrieved": "2026-08-14",
        "licence": "CC BY 4.0 — attribution required",
        "links": [{"label": "Master of Science in Computer Science (MSc) - Specialization in Artificial Intelligence", "url": "https://www.lakeheadu.ca/programs/graduate/programs/masters/computer-science/node/7246"}],
        "notes": "1 AI program(s) listed by the source as of 2025-04-15, which is the date of the source snapshot rather than a check of the institution's current calendar."
      }
    },
    {
      "type": "Feature",
      "geometry": { "type": "Point", "coordinates": [-82.403533, 42.9743821] },
      "properties": {
        "id": "pr-lambton-college-of-applied-arts-and-technology-sarnia",
        "name": "Lambton College of Applied Arts and Technology",
        "name_fr": null,
        "layer": "programs",
        "status": "active",
        "operator": null,
        "address": null,
        "municipality": "Sarnia",
        "capacity_mw": null,
        "location_precision": "municipality",
        "source_name": "GCwiki — Canadian academic A.I. programs",
        "source_url": "https://wiki.gccollab.ca/Artificial_Intelligence/Canadian_academic_A.I._programs",
        "retrieved": "2026-08-14",
        "licence": "CC BY 4.0 — attribution required",
        "links": [{"label": "Artificial Intelligence and Machine Learning", "url": "https://www.lambtoncollege.ca/custom/LambtonApps/Programs/International.aspx?id=2147524849"}],
        "notes": "1 AI program(s) listed by the source as of 2025-04-15, which is the date of the source snapshot rather than a check of the institution's current calendar."
      }
    },
    {
      "type": "Feature",
      "geometry": { "type": "Point", "coordinates": [-79.8728583, 43.2560802] },
      "properties": {
        "id": "pr-mohawk-college-of-applied-arts-and-technology-hamilton",
        "name": "Mohawk College of Applied Arts and Technology",
        "name_fr": null,
        "layer": "programs",
        "status": "active",
        "operator": null,
        "address": null,
        "municipality": "Hamilton",
        "capacity_mw": null,
        "location_precision": "municipality",
        "source_name": "GCwiki — Canadian academic A.I. programs",
        "source_url": "https://wiki.gccollab.ca/Artificial_Intelligence/Canadian_academic_A.I._programs",
        "retrieved": "2026-08-14",
        "licence": "CC BY 4.0 — attribution required",
        "links": [{"label": "Applied Artificial Intelligence - 565", "url": "https://www.mohawkcollege.ca/programs/graduate-studies/applied-artificial-intelligence-565"}],
        "notes": "1 AI program(s) listed by the source as of 2025-04-15, which is the date of the source snapshot rather than a check of the institution's current calendar."
      }
    },
    {
      "type": "Feature",
      "geometry": { "type": "Point", "coordinates": [-79.4607617, 46.3092115] },
      "properties": {
        "id": "pr-nipissing-university-north-bay",
        "name": "Nipissing University",
        "name_fr": null,
        "layer": "programs",
        "status": "active",
        "operator": null,
        "address": null,
        "municipality": "North Bay",
        "capacity_mw": null,
        "location_precision": "municipality",
        "source_name": "GCwiki — Canadian academic A.I. programs",
        "source_url": "https://wiki.gccollab.ca/Artificial_Intelligence/Canadian_academic_A.I._programs",
        "retrieved": "2026-08-14",
        "licence": "CC BY 4.0 — attribution required",
        "links": [{"label": "Post-Baccalaureate Diploma in Artificial Intelligence and Machine Learning Applications", "url": "https://academiccalendar.nipissingu.ca/Catalog/ViewCatalog.aspx?pageid=viewcatalog&catalogid=12&chapterid=868&topicgroupid=4312&loaduseredits=True"}],
        "notes": "1 AI program(s) listed by the source as of 2025-04-15, which is the date of the source snapshot rather than a check of the institution's current calendar."
      }
    },
    {
      "type": "Feature",
      "geometry": { "type": "Point", "coordinates": [-78.8635324, 43.8975558] },
      "properties": {
        "id": "pr-ontario-tech-university-oshawa",
        "name": "Ontario Tech University",
        "name_fr": null,
        "layer": "programs",
        "status": "active",
        "operator": null,
        "address": null,
        "municipality": "Oshawa",
        "capacity_mw": null,
        "location_precision": "municipality",
        "source_name": "GCwiki — Canadian academic A.I. programs",
        "source_url": "https://wiki.gccollab.ca/Artificial_Intelligence/Canadian_academic_A.I._programs",
        "retrieved": "2026-08-14",
        "licence": "CC BY 4.0 — attribution required",
        "links": [{"label": "Bachelor of Engineering (Honours) in Artificial Intelligence", "url": "https://ontariotechu.ca/programs/undergraduate/engineering/artificial-intelligence/index.php"}, {"label": "Master of Information Technology Security (MITS) - Artificial Intelligence Field", "url": "https://ontariotechu.ca/programs/business-and-information-technology/information-technology-security-masters-program.php"}],
        "notes": "2 AI program(s) listed by the source as of 2025-04-15, which is the date of the source snapshot rather than a check of the institution's current calendar."
      }
    },
    {
      "type": "Feature",
      "geometry": { "type": "Point", "coordinates": [-76.4283781, 44.3054151] },
      "properties": {
        "id": "pr-queens-university-kingston",
        "name": "Queen's University",
        "name_fr": null,
        "layer": "programs",
        "status": "active",
        "operator": null,
        "address": null,
        "municipality": "Kingston",
        "capacity_mw": null,
        "location_precision": "municipality",
        "source_name": "GCwiki — Canadian academic A.I. programs",
        "source_url": "https://wiki.gccollab.ca/Artificial_Intelligence/Canadian_academic_A.I._programs",
        "retrieved": "2026-08-14",
        "licence": "CC BY 4.0 — attribution required",
        "links": [{"label": "Master of Management in Artificial Intelligence", "url": "https://smith.queensu.ca/grad_studies/mmai/index.php"}],
        "notes": "1 AI program(s) listed by the source as of 2025-04-15, which is the date of the source snapshot rather than a check of the institution's current calendar."
      }
    },
    {
      "type": "Feature",
      "geometry": { "type": "Point", "coordinates": [-79.3839347, 43.6534817] },
      "properties": {
        "id": "pr-seneca-college-toronto",
        "name": "Seneca College",
        "name_fr": null,
        "layer": "programs",
        "status": "active",
        "operator": null,
        "address": null,
        "municipality": "Toronto",
        "capacity_mw": null,
        "location_precision": "municipality",
        "source_name": "GCwiki — Canadian academic A.I. programs",
        "source_url": "https://wiki.gccollab.ca/Artificial_Intelligence/Canadian_academic_A.I._programs",
        "retrieved": "2026-08-14",
        "licence": "CC BY 4.0 — attribution required",
        "links": [{"label": "Artificial Intelligence", "url": "https://www.senecapolytechnic.ca/programs/fulltime/AIG.html"}],
        "notes": "1 AI program(s) listed by the source as of 2025-04-15, which is the date of the source snapshot rather than a check of the institution's current calendar."
      }
    },
    {
      "type": "Feature",
      "geometry": { "type": "Point", "coordinates": [-78.8635324, 43.8975558] },
      "properties": {
        "id": "pr-trent-university-oshawa",
        "name": "Trent University",
        "name_fr": null,
        "layer": "programs",
        "status": "active",
        "operator": null,
        "address": null,
        "municipality": "Oshawa",
        "capacity_mw": null,
        "location_precision": "municipality",
        "source_name": "GCwiki — Canadian academic A.I. programs",
        "source_url": "https://wiki.gccollab.ca/Artificial_Intelligence/Canadian_academic_A.I._programs",
        "retrieved": "2026-08-14",
        "licence": "CC BY 4.0 — attribution required",
        "links": [{"label": "Bachelor of Arts in Artificial Intelligence", "url": "https://www.trentu.ca/futurestudents/program/artificial-intelligence"}, {"label": "Postgraduate Certificate Applied Artificial Intelligence", "url": "https://www.trentu.ca/futurestudents/program/applied-artificial-intelligence"}, {"label": "Postgraduate Certificate Applied Artificial Intelligence & Financial Analytics", "url": "https://www.trentu.ca/futurestudents/program/applied-artificial-intelligence-financial-analytics"}, {"label": "Postgraduate Certificate Software Development & Applied Artificial Intelligence", "url": "https://www.trentu.ca/futurestudents/program/software-development-applied-artificial-intelligence"}],
        "notes": "4 AI program(s) listed by the source as of 2025-04-15, which is the date of the source snapshot rather than a check of the institution's current calendar."
      }
    },
    {
      "type": "Feature",
      "geometry": { "type": "Point", "coordinates": [-80.2493276, 43.5460516] },
      "properties": {
        "id": "pr-university-of-guelph-guelph",
        "name": "University of Guelph",
        "name_fr": null,
        "layer": "programs",
        "status": "active",
        "operator": null,
        "address": null,
        "municipality": "Guelph",
        "capacity_mw": null,
        "location_precision": "municipality",
        "source_name": "GCwiki — Canadian academic A.I. programs",
        "source_url": "https://wiki.gccollab.ca/Artificial_Intelligence/Canadian_academic_A.I._programs",
        "retrieved": "2026-08-14",
        "licence": "CC BY 4.0 — attribution required",
        "links": [{"label": "Master of Artificial Intelligence", "url": "https://graduatestudies.uoguelph.ca/programs/csai"}, {"label": "Master of Science in Computer Science Collaborative Specialization in Artificial Intelligence", "url": "https://www.uoguelph.ca/computing/graduates-graduate-programs/collaborative-specialization-artificial-intelligence-msc"}],
        "notes": "2 AI program(s) listed by the source as of 2025-04-15, which is the date of the source snapshot rather than a check of the institution's current calendar."
      }
    },
    {
      "type": "Feature",
      "geometry": { "type": "Point", "coordinates": [-79.3839347, 43.6534817] },
      "properties": {
        "id": "pr-university-of-toronto-toronto",
        "name": "University of Toronto",
        "name_fr": null,
        "layer": "programs",
        "status": "active",
        "operator": null,
        "address": null,
        "municipality": "Toronto",
        "capacity_mw": null,
        "location_precision": "municipality",
        "source_name": "GCwiki — Canadian academic A.I. programs",
        "source_url": "https://wiki.gccollab.ca/Artificial_Intelligence/Canadian_academic_A.I._programs",
        "retrieved": "2026-08-14",
        "licence": "CC BY 4.0 — attribution required",
        "links": [{"label": "Master of Science in Applied Computing – Artificial Intelligence Specialization (MSCAC)", "url": "https://mscac.utoronto.ca/concentrations/ai/"}],
        "notes": "1 AI program(s) listed by the source as of 2025-04-15, which is the date of the source snapshot rather than a check of the institution's current calendar."
      }
    },
    {
      "type": "Feature",
      "geometry": { "type": "Point", "coordinates": [-80.5222961, 43.4652699] },
      "properties": {
        "id": "pr-university-of-waterloo-waterloo",
        "name": "University of Waterloo",
        "name_fr": null,
        "layer": "programs",
        "status": "active",
        "operator": null,
        "address": null,
        "municipality": "Waterloo",
        "capacity_mw": null,
        "location_precision": "municipality",
        "source_name": "GCwiki — Canadian academic A.I. programs",
        "source_url": "https://wiki.gccollab.ca/Artificial_Intelligence/Canadian_academic_A.I._programs",
        "retrieved": "2026-08-14",
        "licence": "CC BY 4.0 — attribution required",
        "links": [{"label": "Bachelor of Computer Science - Artificial Intelligence Specialization", "url": "http://ugradcalendar.uwaterloo.ca/page/MATH-Computer-Sci-Artificial-Intelligence-Spec"}, {"label": "Bachelor of Mathematics in Computer Science - Artificial Intelligence Specialization", "url": "http://ugradcalendar.uwaterloo.ca/page/MATH-Computer-Sci-Artificial-Intelligence-Spec"}, {"label": "Master of Engineering in Electrical and Computer Engineering - Artificial Intelligence and Machine Learning", "url": "https://uwaterloo.ca/graduate-studies-academic-calendar/engineering/department-electrical-and-computer-engineering/master-engineering-meng-electrical-and-computer-engineering"}, {"label": "Master of Engineering in Systems Design Engineering - Artificial Intelligence and Machine Learning", "url": "https://uwaterloo.ca/graduate-studies-academic-calendar/engineering/department-systems-design-engineering/master-engineering-meng-systems-design-engineering"}, {"label": "Minor in Artificial Intelligence (Engineering)", "url": "http://ugradcalendar.uwaterloo.ca/page/ENG-Artificial-Intelligence-Engineering-Option"}, {"label": "Professional Master of Data Science and Artificial Intelligence (MDSAI)", "url": "https://uwaterloo.ca/graduate-studies-academic-calendar/mathematics/data-science-and-artificial-intelligence/master-data-science-and-artificial-intelligence-mdsai"}, {"label": "Professional Master of Data Science and Artificial Intelligence - Co-operative Program (direct entry)", "url": "https://uwaterloo.ca/graduate-studies-academic-calendar/mathematics/data-science-and-artificial-intelligence/master-data-science-and-artificial-intelligence-mdsai-co-operative-program-direct-entry"}],
        "notes": "7 AI program(s) listed by the source as of 2025-04-15, which is the date of the source snapshot rather than a check of the institution's current calendar."
      }
    },
    {
      "type": "Feature",
      "geometry": { "type": "Point", "coordinates": [-81.2496068, 42.9836747] },
      "properties": {
        "id": "pr-university-of-western-ontario-london",
        "name": "University of Western Ontario",
        "name_fr": null,
        "layer": "programs",
        "status": "active",
        "operator": null,
        "address": null,
        "municipality": "London",
        "capacity_mw": null,
        "location_precision": "municipality",
        "source_name": "GCwiki — Canadian academic A.I. programs",
        "source_url": "https://wiki.gccollab.ca/Artificial_Intelligence/Canadian_academic_A.I._programs",
        "retrieved": "2026-08-14",
        "licence": "CC BY 4.0 — attribution required",
        "links": [{"label": "Collaborative Specialization in Artificial Intelligence", "url": "https://grad.uwo.ca/admissions/programs/program.cfm?p=275"}],
        "notes": "1 AI program(s) listed by the source as of 2025-04-15, which is the date of the source snapshot rather than a check of the institution's current calendar."
      }
    },
    {
      "type": "Feature",
      "geometry": { "type": "Point", "coordinates": [-79.3839347, 43.6534817] },
      "properties": {
        "id": "pr-york-university-toronto",
        "name": "York University",
        "name_fr": null,
        "layer": "programs",
        "status": "active",
        "operator": null,
        "address": null,
        "municipality": "Toronto",
        "capacity_mw": null,
        "location_precision": "municipality",
        "source_name": "GCwiki — Canadian academic A.I. programs",
        "source_url": "https://wiki.gccollab.ca/Artificial_Intelligence/Canadian_academic_A.I._programs",
        "retrieved": "2026-08-14",
        "licence": "CC BY 4.0 — attribution required",
        "links": [{"label": "Master of Management in Artificial Intelligence (MMAI)", "url": "https://futurestudents.yorku.ca/graduate/programs/artificial-intelligence"}],
        "notes": "1 AI program(s) listed by the source as of 2025-04-15, which is the date of the source snapshot rather than a check of the institution's current calendar."
      }
    }
  ]
}
